[{"OBJECT_NAME":"STARLINK-30069","OBJECT_ID":"2023-079M","EPOCH":"2026-03-08T11:34:15.947328","MEAN_MOTION":15.26726881,"ECCENTRICITY":4.69e-5,"INCLINATION":42.9986,"RA_OF_ASC_NODE":110.4464,"ARG_OF_PERICENTER":272.6695,"MEAN_ANOMALY":87.4103,"EPHEMERIS_TYPE":0,"CLASSIFICATION_TYPE":"U","NORAD_CAT_ID":56834,"ELEMENT_SET_NO":999,"REV_AT_EPOCH":15274,"BSTAR":-8.0472e-5,"MEAN_MOTION_DOT":-2.416e-5,"MEAN_MOTION_DDOT":0},{"OBJECT_NAME":"STARLINK-31278","OBJECT_ID":"2024-044M","EPOCH":"2026-03-09T12:44:23.591904","MEAN_MOTION":15.27566797,"ECCENTRICITY":0.00019948,"INCLINATION":43.0038,"RA_OF_ASC_NODE":107.7183,"ARG_OF_PERICENTER":287.1664,"MEAN_ANOMALY":72.8969,"EPHEMERIS_TYPE":0,"CLASSIFICATION_TYPE":"U","NORAD_CAT_ID":59163,"ELEMENT_SET_NO":999,"REV_AT_EPOCH":11354,"BSTAR":5.1076473e-5,"MEAN_MOTION_DOT":1.143e-5,"MEAN_MOTION_DDOT":0}]
